{
  "type": "FeatureCollection",
  "features": [
    {
      "type": "Feature",
      "properties": {
        "norad_id": 38250,
        "name": "BEIDOU-2 M3 (C11)",
        "group": "beidou",
        "lat": 53.343957310612595,
        "lon": 65.45823199681992,
        "alt_km": 21588.43817309461,
        "timestamp": "2025-12-21T14:40:48.181775+00:00",
        "meta_object_name": "BEIDOU-2 M3 (C11)",
        "meta_object_id": "2012-018A",
        "meta_epoch": "2025-12-20T22:02:43.406880",
        "meta_mean_motion": 1.86230123,
        "meta_eccentricity": 0.00241142,
        "meta_inclination": 55.9133,
        "meta_ra_of_asc_node": 310.8827,
        "meta_arg_of_pericenter": 275.2065,
        "meta_mean_anomaly": 84.51,
        "meta_ephemeris_type": 0,
        "meta_classification_type": "U",
        "meta_norad_cat_id": 38250,
        "meta_element_set_no": 999,
        "meta_rev_at_epoch": 9262,
        "meta_bstar": 0,
        "meta_mean_motion_dot": -6.6e-07,
        "meta_mean_motion_ddot": 0,
        "tle_line1": "1 38250U 12018A   25354.91855795 -.00000066  00000+0  00000+0 0  9999",
        "tle_line2": "2 38250  55.9133 310.8827 0024114 275.2065  84.5100  1.86230123 92627"
      },
      "geometry": {
        "type": "Point",
        "coordinates": [
          65.45823199681992,
          53.343957310612595
        ]
      }
    },
    {
      "type": "Feature",
      "properties": {
        "norad_id": 38251,
        "name": "BEIDOU-2 M4 (C12)",
        "group": "beidou",
        "lat": 24.45577540600078,
        "lon": 112.07652877918868,
        "alt_km": 21552.110004126807,
        "timestamp": "2025-12-21T14:40:48.181787+00:00",
        "meta_object_name": "BEIDOU-2 M4 (C12)",
        "meta_object_id": "2012-018B",
        "meta_epoch": "2025-12-20T20:24:53.726112",
        "meta_mean_motion": 1.86229788,
        "meta_eccentricity": 0.00153189,
        "meta_inclination": 55.8144,
        "meta_ra_of_asc_node": 310.113,
        "meta_arg_of_pericenter": 278.7848,
        "meta_mean_anomaly": 81.0336,
        "meta_ephemeris_type": 0,
        "meta_classification_type": "U",
        "meta_norad_cat_id": 38251,
        "meta_element_set_no": 999,
        "meta_rev_at_epoch": 9262,
        "meta_bstar": 0,
        "meta_mean_motion_dot": -6.6e-07,
        "meta_mean_motion_ddot": 0,
        "tle_line1": "1 38251U 12018B   25354.85062183 -.00000066  00000+0  00000+0 0  9994",
        "tle_line2": "2 38251  55.8144 310.1130 0015318 278.7848  81.0336  1.86229788 92620"
      },
      "geometry": {
        "type": "Point",
        "coordinates": [
          112.07652877918868,
          24.45577540600078
        ]
      }
    },
    {
      "type": "Feature",
      "properties": {
        "norad_id": 38775,
        "name": "BEIDOU-2 M6 (C14)",
        "group": "beidou",
        "lat": -13.23620941470392,
        "lon": 59.80369530647863,
        "alt_km": 21498.32811492141,
        "timestamp": "2025-12-21T14:40:48.181798+00:00",
        "meta_object_name": "BEIDOU-2 M6 (C14)",
        "meta_object_id": "2012-050B",
        "meta_epoch": "2025-12-21T02:21:46.465344",
        "meta_mean_motion": 1.86230924,
        "meta_eccentricity": 0.00113708,
        "meta_inclination": 56.3853,
        "meta_ra_of_asc_node": 68.7901,
        "meta_arg_of_pericenter": 343.4825,
        "meta_mean_anomaly": 16.5255,
        "meta_ephemeris_type": 0,
        "meta_classification_type": "U",
        "meta_norad_cat_id": 38775,
        "meta_element_set_no": 999,
        "meta_rev_at_epoch": 8999,
        "meta_bstar": 0,
        "meta_mean_motion_dot": -3.7e-07,
        "meta_mean_motion_ddot": 0,
        "tle_line1": "1 38775U 12050B   25355.09845446 -.00000037  00000+0  00000+0 0  9997",
        "tle_line2": "2 38775  56.3853  68.7901 0011370 343.4825  16.5255  1.86230924 89998"
      },
      "geometry": {
        "type": "Point",
        "coordinates": [
          59.80369530647863,
          -13.23620941470392
        ]
      }
    },
    {
      "type": "Feature",
      "properties": {
        "norad_id": 38953,
        "name": "BEIDOU-2 G6 (C02)",
        "group": "beidou",
        "lat": -2.5835095831490347,
        "lon": 34.66981223840266,
        "alt_km": 35756.28685571671,
        "timestamp": "2025-12-21T14:40:48.181810+00:00",
        "meta_object_name": "BEIDOU-2 G6 (C02)",
        "meta_object_id": "2012-059A",
        "meta_epoch": "2025-12-21T01:36:53.216640",
        "meta_mean_motion": 1.00268834,
        "meta_eccentricity": 0.00082701,
        "meta_inclination": 3.9692,
        "meta_ra_of_asc_node": 75.4251,
        "meta_arg_of_pericenter": 292.3777,
        "meta_mean_anomaly": 190.2509,
        "meta_ephemeris_type": 0,
        "meta_classification_type": "U",
        "meta_norad_cat_id": 38953,
        "meta_element_set_no": 999,
        "meta_rev_at_epoch": 4812,
        "meta_bstar": 0,
        "meta_mean_motion_dot": -1.54e-06,
        "meta_mean_motion_ddot": 0,
        "tle_line1": "1 38953U 12059A   25355.06728260 -.00000154  00000+0  00000+0 0  9995",
        "tle_line2": "2 38953   3.9692  75.4251 0008270 292.3777 190.2509  1.00268834 48120"
      },
      "geometry": {
        "type": "Point",
        "coordinates": [
          34.66981223840266,
          -2.5835095831490347
        ]
      }
    },
    {
      "type": "Feature",
      "properties": {
        "norad_id": 40549,
        "name": "BEIDOU-3S IGSO-1S (C31)",
        "group": "beidou",
        "lat": 46.6452968231843,
        "lon": 53.09498189041332,
        "alt_km": 35765.86288994937,
        "timestamp": "2025-12-21T14:40:48.181822+00:00",
        "meta_object_name": "BEIDOU-3S IGSO-1S (C31)",
        "meta_object_id": "2015-019A",
        "meta_epoch": "2025-12-18T19:55:38.829792",
        "meta_mean_motion": 1.00292047,
        "meta_eccentricity": 0.0036331,
        "meta_inclination": 49.5404,
        "meta_ra_of_asc_node": 297.6395,
        "meta_arg_of_pericenter": 194.0028,
        "meta_mean_anomaly": 349.3621,
        "meta_ephemeris_type": 0,
        "meta_classification_type": "U",
        "meta_norad_cat_id": 40549,
        "meta_element_set_no": 999,
        "meta_rev_at_epoch": 3926,
        "meta_bstar": 0,
        "meta_mean_motion_dot": -1.83e-06,
        "meta_mean_motion_ddot": 0,
        "tle_line1": "1 40549U 15019A   25352.83031053 -.00000183  00000+0  00000+0 0  9999",
        "tle_line2": "2 40549  49.5404 297.6395 0036331 194.0028 349.3621  1.00292047 39264"
      },
      "geometry": {
        "type": "Point",
        "coordinates": [
          53.09498189041332,
          46.6452968231843
        ]
      }
    },
    {
      "type": "Feature",
      "properties": {
        "norad_id": 40748,
        "name": "BEIDOU-3S M2S (C58)",
        "group": "beidou",
        "lat": 10.423820688037157,
        "lon": -44.47410899391283,
        "alt_km": 21534.197890002142,
        "timestamp": "2025-12-21T14:40:48.181833+00:00",
        "meta_object_name": "BEIDOU-3S M2S (C58)",
        "meta_object_id": "2015-037A",
        "meta_epoch": "2025-12-21T01:20:10.891968",
        "meta_mean_motion": 1.86229521,
        "meta_eccentricity": 0.0011954,
        "meta_inclination": 55.0313,
        "meta_ra_of_asc_node": 308.1781,
        "meta_arg_of_pericenter": 270.2821,
        "meta_mean_anomaly": 89.5753,
        "meta_ephemeris_type": 0,
        "meta_classification_type": "U",
        "meta_norad_cat_id": 40748,
        "meta_element_set_no": 999,
        "meta_rev_at_epoch": 7080,
        "meta_bstar": 0,
        "meta_mean_motion_dot": -6.4e-07,
        "meta_mean_motion_ddot": 0,
        "tle_line1": "1 40748U 15037A   25355.05568162 -.00000064  00000+0  00000+0 0  9991",
        "tle_line2": "2 40748  55.0313 308.1781 0011954 270.2821  89.5753  1.86229521 70800"
      },
      "geometry": {
        "type": "Point",
        "coordinates": [
          -44.47410899391283,
          10.423820688037157
        ]
      }
    },
    {
      "type": "Feature",
      "properties": {
        "norad_id": 40749,
        "name": "BEIDOU-3S M1S (C57)",
        "group": "beidou",
        "lat": -31.220316390407262,
        "lon": 153.20102896103973,
        "alt_km": 21537.64839274341,
        "timestamp": "2025-12-21T14:40:48.181844+00:00",
        "meta_object_name": "BEIDOU-3S M1S (C57)",
        "meta_object_id": "2015-037B",
        "meta_epoch": "2025-12-19T03:17:32.841888",
        "meta_mean_motion": 1.86254044,
        "meta_eccentricity": 0.0003631,
        "meta_inclination": 55.0296,
        "meta_ra_of_asc_node": 308.2337,
        "meta_arg_of_pericenter": 1.0538,
        "meta_mean_anomaly": 358.9355,
        "meta_ephemeris_type": 0,
        "meta_classification_type": "U",
        "meta_norad_cat_id": 40749,
        "meta_element_set_no": 999,
        "meta_rev_at_epoch": 7077,
        "meta_bstar": 0,
        "meta_mean_motion_dot": -7.8e-07,
        "meta_mean_motion_ddot": 0,
        "tle_line1": "1 40749U 15037B   25353.13718567 -.00000078  00000+0  00000+0 0  9990",
        "tle_line2": "2 40749  55.0296 308.2337 0003631   1.0538 358.9355  1.86254044 70772"
      },
      "geometry": {
        "type": "Point",
        "coordinates": [
          153.20102896103973,
          -31.220316390407262
        ]
      }
    }
  ]
}